[{"OBJECT_NAME":"STARLINK-2429","OBJECT_ID":"2021-018BD","EPOCH":"2026-03-09T19:19:17.658336","MEAN_MOTION":15.30195186,"ECCENTRICITY":0.00014122,"INCLINATION":53.1602,"RA_OF_ASC_NODE":244.9032,"ARG_OF_PERICENTER":77.7862,"MEAN_ANOMALY":282.3297,"EPHEMERIS_TYPE":0,"CLASSIFICATION_TYPE":"U","NORAD_CAT_ID":47838,"ELEMENT_SET_NO":999,"REV_AT_EPOCH":27670,"BSTAR":2.1653686e-5,"MEAN_MOTION_DOT":2.82e-6,"MEAN_MOTION_DDOT":0},{"OBJECT_NAME":"CZ-6A DEB","OBJECT_ID":"2022-151EM","EPOCH":"2026-03-09T21:12:10.844640","MEAN_MOTION":15.1479521,"ECCENTRICITY":0.00732342,"INCLINATION":98.809,"RA_OF_ASC_NODE":212.6624,"ARG_OF_PERICENTER":10.5605,"MEAN_ANOMALY":349.714,"EPHEMERIS_TYPE":0,"CLASSIFICATION_TYPE":"U","NORAD_CAT_ID":54413,"ELEMENT_SET_NO":999,"REV_AT_EPOCH":17915,"BSTAR":0.0020661814,"MEAN_MOTION_DOT":0.00041137,"MEAN_MOTION_DDOT":0}]
